NORAD_CAT_ID,OBJECT_NAME,OBJECT_TYPE,EPOCH,MEAN_MOTION,ECCENTRICITY,INCLINATION,RA_OF_ASC_NODE,ARG_OF_PERICENTER,MEAN_ANOMALY,BSTAR,MEAN_MOTION_DOT,MEAN_MOTION_DDOT,TLE_LINE0,TLE_LINE1,TLE_LINE2,SEMIMAJOR_AXIS,PERIOD,APOGEE,PERIGEE,DECAYED
53799.0,STARLINK-4710,PAYLOAD,2022-09-19 20:00:01,15.73135439,9.86e-05,53.2159,223.6537,99.2836,84.6369,0.00057539,0.00080686,0.0,0 STARLINK-4710,1 53799U 22111AC  22262.83334491  .00080686  00000-0  57539-3 0  9999,2 53799  53.2159 223.6537 0000986  99.2836  84.6369 15.73135439  1309,6728.079000000002,91.537,350.608,349.281,0.0
53799.0,STARLINK-4710,PAYLOAD,2022-09-19 22:00:00,15.73155696,0.0001026,53.2161,223.2417,100.1646,195.969,0.00051137,0.00071624,0.0,0 STARLINK-4710,1 53799U 22111AC  22262.91667824  .00071624  00000-0  51137-3 0  9997,2 53799  53.2161 223.2417 0001026 100.1646 195.9690 15.73155696  1313,6728.021,91.536,350.577,349.196,0.0
53799.0,STARLINK-4710,PAYLOAD,2022-09-20 06:00:00,15.73187005,9.1e-05,53.2162,221.5943,87.7893,297.2526,-4.3006e-05,-6.646e-05,0.0,0 STARLINK-4710,1 53799U 22111AC  22263.25001157 -.00006646  00000-0 -43006-4 0  9997,2 53799  53.2162 221.5943 0000910  87.7893 297.2526 15.73187005  1362,6727.932,91.534,350.409,349.185,0.0
53799.0,STARLINK-4710,PAYLOAD,2022-09-20 14:00:01,15.73206997,8.109999999999999e-05,53.2163,219.9434,93.7958,20.1498,8.7104e-05,0.00011625,0.0,0 STARLINK-4710,1 53799U 22111AC  22263.58334491  .00011625  00000-0  87104-4 0  9991,2 53799  53.2163 219.9434 0000811  93.7958  20.1498 15.73206997  1305,6727.875,91.533,350.286,349.195,0.0
53799.0,STARLINK-4710,PAYLOAD,2022-09-20 22:00:01,15.73218272,9.82e-05,53.2167,218.2933,101.365,101.5687,-0.00031997,-0.00045317,0.0,0 STARLINK-4710,1 53799U 22111AC  22263.91668981 -.00045317  00000-0 -31997-3 0  9997,2 53799  53.2167 218.2933 0000982 101.3650 101.5687 15.73218272  1302,6727.843000000003,91.532,350.369,349.047,0.0
53799.0,STARLINK-4710,PAYLOAD,2022-09-21 14:00:01,15.73178659,7.950000000000001e-05,53.2162,214.9949,98.7737,281.905,0.00025534,0.00035333,0.0,0 STARLINK-4710,1 53799U 22111AC  22264.58334491  .00035333  00000-0  25534-3 0  9992,2 53799  53.2162 214.9949 0000795  98.7737 281.9050 15.73178659  1574,6727.956,91.534,350.356,349.286,0.0
53799.0,STARLINK-4710,PAYLOAD,2022-09-21 22:00:00,15.7322891,9.57e-05,53.2165,213.3452,105.1889,4.4001,0.00019009,0.00026174,0.0,0 STARLINK-4710,1 53799U 22111AC  22264.91667824  .00026174  00000-0  19009-3 0  9991,2 53799  53.2165 213.3452 0000957 105.1889   4.4001 15.73228910  1301,6727.813,91.531,350.32199999999995,349.034,0.0
53799.0,STARLINK-4710,PAYLOAD,2022-09-22 14:00:01,15.73166617,0.0001252,53.2169,210.0463,97.7293,189.7798,0.00021449,0.00029545,0.0,0 STARLINK-4710,1 53799U 22111AC  22265.58334491  .00029545  00000-0  21449-3 0  9992,2 53799  53.2169 210.0463 0001252  97.7293 189.7798 15.73166617  1300,6727.99,91.535,350.6980000000001,349.01300000000015,0.0
53799.0,STARLINK-4710,PAYLOAD,2022-09-22 22:00:00,15.73226235,0.0001296999999999,53.2172,208.3966,101.4395,274.9642,3.7144e-05,4.601e-05,0.0,0 STARLINK-4710,1 53799U 22111AC  22265.91667824  .00004601  00000-0  37144-4 0  9994,2 53799  53.2172 208.3966 0001297 101.4395 274.9642 15.73226235  1305,6727.82,91.532,350.55800000000005,348.81300000000016,0.0
53799.0,STARLINK-4710,PAYLOAD,2022-09-23 14:00:01,15.73188499,0.0001205,53.2171,205.0977,100.6771,93.6336,-5.9547e-05,-8.963e-05,0.0,0 STARLINK-4710,1 53799U 22111AC  22266.58334491 -.00008963  00000-0 -59547-4 0  9997,2 53799  53.2171 205.0977 0001205 100.6771  93.6336 15.73188499  1303,6727.928000000001,91.534,350.60400000000016,348.982,0.0
53799.0,STARLINK-4710,PAYLOAD,2022-09-23 20:00:01,15.73178351,0.0001357,53.2172,203.8602,107.9627,63.0931,0.00052523,0.00073673,0.0,0 STARLINK-4710,1 53799U 22111AC  22266.83335648  .00073673  00000-0  52523-3 0  9994,2 53799  53.2172 203.8602 0001357 107.9627  63.0931 15.73178351  1301,6727.956999999999,91.534,350.735,348.909,0.0
53799.0,STARLINK-4710,PAYLOAD,2022-09-24 06:00:00,15.73178698,8.66e-05,53.2172,201.8008,90.3222,281.7983,1.0462e-05,8.48e-06,0.0,0 STARLINK-4710,1 53799U 22111AC  22267.25001157  .00000848  00000-0  10462-4 0  9997,2 53799  53.2172 201.8008 0000866  90.3222 281.7983 15.73178698  1994,6727.956,91.534,350.404,349.23800000000006,0.0
53799.0,STARLINK-4710,PAYLOAD,2022-09-24 14:00:01,15.73174775,7.62e-05,53.2177,200.1495,103.6429,357.4389,2.9573000000000013e-05,3.529e-05,0.0,0 STARLINK-4710,1 53799U 22111AC  22267.58335648  .00003529  00000-0  29573-4 0  9990,2 53799  53.2177 200.1495 0000762 103.6429 357.4389 15.73174775  1301,6727.967,91.535,350.345,349.319,0.0
53799.0,STARLINK-4710,PAYLOAD,2022-09-24 22:00:00,15.73195849,9.3e-05,53.218,198.5003,103.7192,86.1963,-0.00075492,-0.00105229,0.0,0 STARLINK-4710,1 53799U 22111AC  22267.91667824 -.00105229  00000-0 -75492-3 0  9993,2 53799  53.2180 198.5003 0000930 103.7192  86.1963 15.73195849  1304,6727.906999999997,91.533,350.398,349.146,0.0
53799.0,STARLINK-4710,PAYLOAD,2022-09-25 06:00:00,15.73064201,9.27e-05,53.2179,196.8548,85.7712,193.0294,0.0017622,0.0025280999999999,0.0,0 STARLINK-4710,1 53799U 22111AC  22268.25001157  .00252810  00000-0  17622-2 0  9999,2 53799  53.2179 196.8548 0000927  85.7712 193.0294 15.73064201  2156,6728.281999999997,91.541,350.771,349.524,0.0
53799.0,STARLINK-4710,PAYLOAD,2022-09-25 14:00:01,15.73440771,9.83e-05,53.2178,195.2065,88.9982,278.6195,-0.0010267999999999,-0.00143757,0.0,0 STARLINK-4710,1 53799U 22111AC  22268.58334491 -.00143757  00000-0 -10268-2 0  9995,2 53799  53.2178 195.2065 0000983  88.9982 278.6195 15.73440771  2204,6727.209,91.519,349.735,348.413,0.0
53799.0,STARLINK-4710,PAYLOAD,2022-09-25 22:00:01,15.7330033,9.42e-05,53.2175,193.5569,99.5522,357.2755,-0.0010393,-0.00144611,0.0,0 STARLINK-4710,1 53799U 22111AC  22268.91668981 -.00144611  00000-0 -10393-2 0  9995,2 53799  53.2175 193.5569 0000942  99.5522 357.2755 15.73300330  2251,6727.609,91.527,350.108,348.84,0.0
53799.0,STARLINK-4710,PAYLOAD,2022-09-26 10:00:00,15.73221922,8.859999999999999e-05,53.2176,191.0786,97.2929,312.9523,4.0726e-05,5.105e-05,0.0,0 STARLINK-4710,1 53799U 22111AC  22269.41667824  .00005105  00000-0  40726-4 0  9993,2 53799  53.2176 191.0786 0000886  97.2929 312.9523 15.73221922  2338,6727.833000000001,91.532,350.2940000000001,349.102,0.0
53799.0,STARLINK-4710,PAYLOAD,2022-09-26 14:00:01,15.73228484,9.46e-05,53.218,190.2528,106.5647,168.1545,-0.00018358,-0.00026333,0.0,0 STARLINK-4710,1 53799U 22111AC  22269.58334491 -.00026333  00000-0 -18358-3 0  9995,2 53799  53.2180 190.2528 0000946 106.5647 168.1545 15.73228484  1307,6727.814,91.532,350.315,349.043,0.0
53799.0,STARLINK-4710,PAYLOAD,2022-09-26 22:00:00,15.7324192,0.0001034,53.2182,188.6039,103.3081,260.3529,-0.00045711,-0.00064395,0.0,0 STARLINK-4710,1 53799U 22111AC  22269.91667824 -.00064395  00000-0 -45711-3 0  9994,2 53799  53.2182 188.6039 0001034 103.3081 260.3529 15.73241920  1300,6727.776,91.531,350.336,348.945,0.0
53799.0,STARLINK-4710,PAYLOAD,2022-09-27 06:00:00,15.73177088,9.33e-05,53.2178,186.9558,91.1801,1.4427,0.0001672,0.00022886,0.0,0 STARLINK-4710,1 53799U 22111AC  22270.25001157  .00022886  00000-0  16720-3 0  9999,2 53799  53.2178 186.9558 0000933  91.1801   1.4427 15.73177088  2465,6727.96,91.535,350.45300000000015,349.1980000000001,0.0
53799.0,STARLINK-4710,PAYLOAD,2022-09-27 14:00:01,15.73142066,9.84e-05,53.2177,185.3044,108.0791,73.4743,0.00056193,0.00078789,0.0,0 STARLINK-4710,1 53799U 22111AC  22270.58334491  .00078789  00000-0  56193-3 0  9996,2 53799  53.2177 185.3044 0000984 108.0791  73.4743 15.73142066  1309,6728.06,91.537,350.587,349.26300000000015,0.0
53799.0,STARLINK-4710,PAYLOAD,2022-09-27 22:00:01,15.73216352,0.0001082,53.2176,183.6561,106.0007,164.507,0.0003517,0.00049062,0.0,0 STARLINK-4710,1 53799U 22111AC  22270.91668981  .00049062  00000-0  35170-3 0  9991,2 53799  53.2176 183.6561 0001082 106.0007 164.5070 15.73216352  1306,6727.849,91.532,350.44199999999995,348.986,0.0
53799.0,STARLINK-4710,PAYLOAD,2022-09-28 06:00:00,15.73257547,9.85e-05,53.2171,182.0078,94.6877,264.7189,0.00045159,0.00063394,0.0,0 STARLINK-4710,1 53799U 22111AC  22271.25001157  .00063394  00000-0  45159-3 0  9997,2 53799  53.2171 182.0078 0000985  94.6877 264.7189 15.73257547  2626,6727.731,91.53,350.259,348.93300000000005,0.0
53799.0,STARLINK-4710,PAYLOAD,2022-09-28 14:00:01,15.7328461,0.0001051,53.2173,180.3561,114.4955,333.9458,-0.00049973,-0.0007042,0.0,0 STARLINK-4710,1 53799U 22111AC  22271.58334491 -.00070420  00000-0 -49973-3 0  9991,2 53799  53.2173 180.3561 0001051 114.4955 333.9458 15.73284610  1302,6727.654,91.528,350.226,348.81199999999984,0.0
53799.0,STARLINK-4710,PAYLOAD,2022-09-28 22:00:00,15.73216711,0.0001025,53.2176,178.7076,107.0071,70.3737,-0.00083811,-0.00116704,0.0,0 STARLINK-4710,1 53799U 22111AC  22271.91667824 -.00116704  00000-0 -83811-3 0  9992,2 53799  53.2176 178.7076 0001025 107.0071  70.3737 15.73216711  2721,6727.848000000001,91.532,350.402,349.023,0.0
53799.0,STARLINK-4710,PAYLOAD,2022-09-29 14:00:01,15.73101251,8.1e-05,53.217,175.4079,121.1973,233.9134,0.00078521,0.00110569,0.0,0 STARLINK-4710,1 53799U 22111AC  22272.58334491  .00110569  00000-0  78521-3 0  9990,2 53799  53.2170 175.4079 0000810 121.1973 233.9134 15.73101251  2833,6728.177,91.539,350.587,349.497,0.0
53799.0,STARLINK-4710,PAYLOAD,2022-09-29 22:00:00,15.73187107,7.759999999999999e-05,53.2168,173.76,114.6658,329.2926,0.00023384,0.00032306,0.0,0 STARLINK-4710,1 53799U 22111AC  22272.91667824  .00032306  00000-0  23384-3 0  9995,2 53799  53.2168 173.7600 0000776 114.6658 329.2926 15.73187107  1302,6727.932,91.534,350.319,349.275,0.0
53799.0,STARLINK-4710,PAYLOAD,2022-09-30 06:00:02,15.73234834,7.36e-05,53.2163,172.1113,106.2534,66.6886,0.00010908,0.00014739,0.0,0 STARLINK-4710,1 53799U 22111AC  22273.25002315  .00014739  00000-0  10908-3 0  9999,2 53799  53.2163 172.1113 0000736 106.2534  66.6886 15.73234834  2932,6727.795999999999,91.531,350.156,349.166,0.0
